NORAD_CAT_ID,OBJECT_NAME,OBJECT_TYPE,EPOCH,MEAN_MOTION,ECCENTRICITY,INCLINATION,RA_OF_ASC_NODE,ARG_OF_PERICENTER,MEAN_ANOMALY,BSTAR,MEAN_MOTION_DOT,MEAN_MOTION_DDOT,TLE_LINE0,TLE_LINE1,TLE_LINE2,SEMIMAJOR_AXIS,PERIOD,APOGEE,PERIGEE,DECAYED
55302.0,STARLINK-5321,PAYLOAD,2023-07-09 19:02:46,14.98321249,0.0003161,70.0005,319.8054,266.4088,93.671,0.00017263,1.967e-05,0.0,0 STARLINK-5321,1 55302U 23010AK  23190.79358894  .00001967  00000-0  17263-3 0  9994,2 55302  70.0005 319.8054 0003161 266.4088  93.6710 14.98321249 27080,6950.22,96.108,574.282,569.888,0.0
55302.0,STARLINK-5321,PAYLOAD,2023-07-10 09:27:58,14.98331008,0.0003287,70.0008,318.2904,270.5012,89.577,2.7358e-05,2.33e-06,0.0,0 STARLINK-5321,1 55302U 23010AK  23191.39442558  .00000233  00000-0  27358-4 0  9994,2 55302  70.0008 318.2904 0003287 270.5012  89.5770 14.98331008 27176,6950.19,96.107,574.339,569.77,0.0
55302.0,STARLINK-5321,PAYLOAD,2023-07-11 01:29:18,14.9835163,0.0003369,70.0011,316.6068,274.0303,86.047,-0.00034304,-4.186e-05,0.0,0 STARLINK-5321,1 55302U 23010AK  23192.06201976 -.00004186  00000-0 -34304-3 0  9997,2 55302  70.0011 316.6068 0003369 274.0303  86.0470 14.98351630 27279,6950.126,96.106,574.333,569.65,0.0
55302.0,STARLINK-5321,PAYLOAD,2023-07-11 11:06:07,14.98329477,0.0003293,70.0008,315.5972,269.7663,90.3119,4.2599e-06,-4.2e-07,0.0,0 STARLINK-5321,1 55302U 23010AK  23192.46258606 -.00000042  00000-0  42599-5 0  9996,2 55302  70.0008 315.5972 0003293 269.7663  90.3119 14.98329477 27332,6950.195,96.107,574.348,569.771,0.0
55302.0,STARLINK-5321,PAYLOAD,2023-07-12 17:32:40,14.98329202,0.0003158,70.0012,312.4001,268.0054,92.0744,-2.3581e-05,-3.74e-06,0.0,0 STARLINK-5321,1 55302U 23010AK  23193.73102627 -.00000374  00000-0 -23581-4 0  9996,2 55302  70.0012 312.4001 0003158 268.0054  92.0744 14.98329202 27522,6950.195,96.107,574.255,569.865,0.0
55302.0,STARLINK-5321,PAYLOAD,2023-07-13 17:34:41,14.98328173,0.0003294,70.001,309.8753,270.3897,89.6884,-1.3172e-05,-2.5e-06,0.0,0 STARLINK-5321,1 55302U 23010AK  23194.73242697 -.00000250  00000-0 -13172-4 0  9997,2 55302  70.0010 309.8753 0003294 270.3897  89.6884 14.98328173 27675,6950.199,96.107,574.353,569.774,0.0
55302.0,STARLINK-5321,PAYLOAD,2023-07-14 17:36:42,14.98333261,0.0003352,70.0007,307.3494,271.113,88.9645,6.7918e-05,7.18e-06,0.0,0 STARLINK-5321,1 55302U 23010AK  23195.73382158  .00000718  00000-0  67918-4 0  9999,2 55302  70.0007 307.3494 0003352 271.1130  88.9645 14.98333261 27828,6950.183,96.107,574.378,569.718,0.0
55302.0,STARLINK-5321,PAYLOAD,2023-07-15 17:38:43,14.98333152,0.0003209,70.0009,304.8244,271.5368,88.5424,6.7792e-05,7.16e-06,0.0,0 STARLINK-5321,1 55302U 23010AK  23196.73522089  .00000716  00000-0  67792-4 0  9997,2 55302  70.0009 304.8244 0003209 271.5368  88.5424 14.98333152 27979,6950.183,96.107,574.278,569.818,0.0
55302.0,STARLINK-5321,PAYLOAD,2023-07-16 00:03:15,14.98327501,0.0003152,70.0011,304.1513,273.4341,86.6458,-2.761e-05,-4.22e-06,0.0,0 STARLINK-5321,1 55302U 23010AK  23197.00226704 -.00000422  00000-0 -27610-4 0  9994,2 55302  70.0011 304.1513 0003152 273.4341  86.6458 14.98327501 28016,6950.201,96.107,574.256,569.875,0.0
55302.0,STARLINK-5321,PAYLOAD,2023-07-17 00:05:16,14.98330174,0.0003187,70.0012,301.6271,274.2719,85.8076,-6.0231e-05,-8.12e-06,0.0,0 STARLINK-5321,1 55302U 23010AK  23198.00366730 -.00000812  00000-0 -60231-4 0  9998,2 55302  70.0012 301.6271 0003187 274.2719  85.8076 14.98330174 28169,6950.192,96.107,574.272,569.842,0.0
55302.0,STARLINK-5321,PAYLOAD,2023-07-17 08:05:53,14.98377084,0.0003225,70.0009,300.7848,265.7974,94.2817,0.00048056,5.653e-05,0.0,0 STARLINK-5321,1 55302U 23010AK  23198.33741979  .00005653  00000-0  48056-3 0  9992,2 55302  70.0009 300.7848 0003225 265.7974  94.2817 14.98377084 28210,6950.047,96.104,574.154,569.671,0.0
55302.0,STARLINK-5321,PAYLOAD,2023-07-17 16:06:37,14.98325978,0.0003043,70.0008,299.9433,268.8251,91.2559,-9.089e-05,-1.177e-05,0.0,0 STARLINK-5321,1 55302U 23010AK  23198.67126493 -.00001177  00000-0 -90890-4 0  9990,2 55302  70.0008 299.9433 0003043 268.8251  91.2559 14.98325978 28268,6950.205,96.107,574.185,569.955,0.0
55302.0,STARLINK-5321,PAYLOAD,2023-07-18 16:08:37,14.98328275,0.0003149,70.0006,297.4194,268.0284,92.0514,2.0426e-05,1.51e-06,0.0,0 STARLINK-5321,1 55302U 23010AK  23199.67266188  .00000151  00000-0  20426-4 0  9994,2 55302  70.0006 297.4194 0003149 268.0284  92.0514 14.98328275 28418,6950.198,96.107,574.252,569.875,0.0
55302.0,STARLINK-5321,PAYLOAD,2023-07-19 16:10:39,14.98341993,0.0002926,70.0013,294.8956,257.0922,102.9911,-0.00051992,-6.293e-05,0.0,0 STARLINK-5321,1 55302U 23010AK  23200.67406805 -.00006293  00000-0 -51992-3 0  9995,2 55302  70.0013 294.8956 0002926 257.0922 102.9911 14.98341993 28562,6950.156,96.106,574.054,569.987,0.0
55302.0,STARLINK-5321,PAYLOAD,2023-07-20 16:12:40,14.98332298,0.0003063,70.0008,292.3701,263.8734,96.2076,4.9027e-05,4.92e-06,0.0,0 STARLINK-5321,1 55302U 23010AK  23201.67546317  .00000492  00000-0  49027-4 0  9999,2 55302  70.0008 292.3701 0003063 263.8734  96.2076 14.98332298 28718,6950.186,96.107,574.18,569.922,0.0
55302.0,STARLINK-5321,PAYLOAD,2023-07-23 17:54:53,14.9831044,0.000243,70.001,284.6274,293.8835,66.207,-0.00023098,-2.846e-05,0.0,0 STARLINK-5321,1 55302U 23010AK  23204.74645507 -.00002846  00000-0 -23098-3 0  9997,2 55302  70.0010 284.6274 0002430 293.8835  66.2070 14.98310440 29483,6950.253,96.108,573.807,570.429,0.0
55302.0,STARLINK-5321,PAYLOAD,2023-07-25 11:34:20,14.98332408,0.000359,69.999,280.2486,274.368,85.7069,0.00026491,3.069e-05,0.0,0 STARLINK-5321,1 55302U 23010AK  23206.48218494  .00003069  00000-0  26491-3 0  9997,2 55302  69.9990 280.2486 0003590 274.3680  85.7069 14.98332408 29745,6950.185,96.107,574.546,569.555,0.0
55302.0,STARLINK-5321,PAYLOAD,2023-07-26 06:47:57,14.98339832,0.0003698,69.9991,278.2299,273.4412,86.6324,-7.6426e-05,-1.005e-05,0.0,0 STARLINK-5321,1 55302U 23010AK  23207.28330591 -.00001005  00000-0 -76426-4 0  9993,2 55302  69.9991 278.2299 0003698 273.4412  86.6324 14.98339832 29862,6950.162,96.106,574.598,569.457,0.0
55302.0,STARLINK-5321,PAYLOAD,2023-07-26 08:24:05,14.98340148,0.000374,69.9991,278.0615,273.6041,86.469,-5.877e-05,-7.95e-06,0.0,0 STARLINK-5321,1 55302U 23010AK  23207.35006450 -.00000795  00000-0 -58770-4 0  9992,2 55302  69.9991 278.0615 0003740 273.6041  86.4690 14.98340148 29877,6950.162,96.106,574.626,569.427,0.0
55302.0,STARLINK-5321,PAYLOAD,2023-07-27 02:01:33,14.98338021,0.0003731,69.9988,276.2093,274.2238,85.8494,-9.0897e-05,-1.178e-05,0.0,0 STARLINK-5321,1 55302U 23010AK  23208.08442058 -.00001178  00000-0 -90897-4 0  9993,2 55302  69.9988 276.2093 0003731 274.2238  85.8494 14.98338021 29678,6950.168,96.106,574.626,569.44,0.0
55302.0,STARLINK-5321,PAYLOAD,2023-07-27 21:15:10,14.98339852,0.0003717,69.9989,274.1901,271.2891,88.7842,-0.00011386,-1.452e-05,0.0,0 STARLINK-5321,1 55302U 23010AK  23208.88553489 -.00001452  00000-0 -11386-3 0  9992,2 55302  69.9989 274.1901 0003717 271.2891  88.7842 14.98339852 30102,6950.162,96.106,574.611,569.444,0.0
55302.0,STARLINK-5321,PAYLOAD,2023-07-28 06:51:59,14.983233,0.0003654,69.999,273.1805,270.616,89.458,-7.94e-05,-1.04e-05,0.0,0 STARLINK-5321,1 55302U 23010AK  23209.28610419 -.00001040  00000-0 -79400-4 0  9999,2 55302  69.9990 273.1805 0003654 270.6160  89.4580 14.98323300 29856,6950.214,96.107,574.618,569.539,0.0
55302.0,STARLINK-5321,PAYLOAD,2023-07-28 08:28:07,14.98323137,0.0003656,69.999,273.0122,270.6477,89.4263,-8.0169e-05,-1.049e-05,0.0,0 STARLINK-5321,1 55302U 23010AK  23209.35286453 -.00001049  00000-0 -80169-4 0  9997,2 55302  69.9990 273.0122 0003656 270.6477  89.4263 14.98323137 30173,6950.214,96.107,574.62,569.538,0.0
55302.0,STARLINK-5321,PAYLOAD,2023-07-28 22:53:19,14.98331383,0.0003678,69.9991,271.497,269.549,90.5247,-4.4048e-05,-6.19e-06,0.0,0 STARLINK-5321,1 55302U 23010AK  23209.95369832 -.00000619  00000-0 -44048-4 0  9994,2 55302  69.9991 271.4970 0003678 269.5490  90.5247 14.98331383 29954,6950.189,96.107,574.61,569.497,0.0
55302.0,STARLINK-5321,PAYLOAD,2023-07-29 22:55:20,14.98325622,0.0003686,69.9985,268.9715,270.4354,89.6383,8.0075e-05,8.62e-06,0.0,0 STARLINK-5321,1 55302U 23010AK  23210.95509767  .00000862  00000-0  80075-4 0  9997,2 55302  69.9985 268.9715 0003686 270.4354  89.6383 14.98325622 30102,6950.206,96.107,574.633,569.51,0.0
55302.0,STARLINK-5321,PAYLOAD,2023-07-30 22:57:21,14.98329446,0.0003693,69.9984,266.4463,270.4802,89.5934,2.0087e-05,1.47e-06,0.0,0 STARLINK-5321,1 55302U 23010AK  23211.95649926  .00000147  00000-0  20087-4 0  9993,2 55302  69.9984 266.4463 0003693 270.4802  89.5934 14.98329446 30255,6950.195,96.107,574.626,569.493,0.0
55302.0,STARLINK-5321,PAYLOAD,2023-07-31 13:22:33,14.98354728,0.0003858,69.9983,264.9308,269.5852,90.4865,-0.00044604,-5.415e-05,0.0,0 STARLINK-5321,1 55302U 23010AK  23212.55733300 -.00005415  00000-0 -44604-3 0  9995,2 55302  69.9983 264.9308 0003858 269.5852  90.4865 14.98354728 30347,6950.116,96.105,574.663,569.3,0.0
55302.0,STARLINK-5321,PAYLOAD,2023-08-01 10:12:18,14.98327428,0.0003545,69.9987,262.7429,265.8788,94.1965,6.5339e-05,6.87e-06,0.0,0 STARLINK-5321,1 55302U 23010AK  23213.42521832  .00000687  00000-0  65339-4 0  9990,2 55302  69.9987 262.7429 0003545 265.8788  94.1965 14.98327428 30474,6950.201,96.107,574.53,569.602,0.0
55302.0,STARLINK-5321,PAYLOAD,2023-08-01 13:24:34,14.98333821,0.0003492,69.9982,262.4061,262.9083,97.1679,3.5745e-05,3.33e-06,0.0,0 STARLINK-5321,1 55302U 23010AK  23213.55873457  .00000333  00000-0  35745-4 0  9993,2 55302  69.9982 262.4061 0003492 262.9083  97.1679 14.98333821 30496,6950.181,96.107,574.473,569.619,0.0
55302.0,STARLINK-5321,PAYLOAD,2023-08-02 13:26:35,14.98337407,0.0003719,69.9983,259.8812,269.4197,90.6536,-2.539e-05,-3.96e-06,0.0,0 STARLINK-5321,1 55302U 23010AK  23214.56013235 -.00000396  00000-0 -25390-4 0  9991,2 55302  69.9983 259.8812 0003719 269.4197  90.6536 14.98337407 30642,6950.17,96.107,574.62,569.45,0.0
